<?xml version="1.0" encoding="UTF-8"?>
<ndm xmlns:xsi="http://www.w3.org/2001/XMLSchema-instance" xsi:noNamespaceSchemaLocation="https://sanaregistry.org/r/ndmxml_unqualified/ndmxml-2.0.0-master-2.0.xsd">
<omm id="CCSDS_OMM_VERS" version="2.0">
<header><CREATION_DATE/><ORIGINATOR/></header><body><segment><metadata><OBJECT_NAME>ORBCOMM FM103 [+]</OBJECT_NAME><OBJECT_ID>2014-040F</OBJECT_ID><CENTER_NAME>EARTH</CENTER_NAME><REF_FRAME>TEME</REF_FRAME><TIME_SYSTEM>UTC</TIME_SYSTEM><MEAN_ELEMENT_THEORY>SGP4</MEAN_ELEMENT_THEORY></metadata><data><meanElements><EPOCH>2023-12-05T20:50:35.769120</EPOCH><MEAN_MOTION>14.56115267</MEAN_MOTION><ECCENTRICITY>.0002529</ECCENTRICITY><INCLINATION>47.0043</INCLINATION><RA_OF_ASC_NODE>134.7711</RA_OF_ASC_NODE><ARG_OF_PERICENTER>237.7688</ARG_OF_PERICENTER><MEAN_ANOMALY>122.2951</MEAN_ANOMALY></meanElements><tleParameters><EPHEMERIS_TYPE>0</EPHEMERIS_TYPE><CLASSIFICATION_TYPE>U</CLASSIFICATION_TYPE><NORAD_CAT_ID>40091</NORAD_CAT_ID><ELEMENT_SET_NO>999</ELEMENT_SET_NO><REV_AT_EPOCH>48253</REV_AT_EPOCH><BSTAR>.27166E-3</BSTAR><MEAN_MOTION_DOT>.1042E-4</MEAN_MOTION_DOT><MEAN_MOTION_DDOT>0</MEAN_MOTION_DDOT></tleParameters></data></segment></body></omm>
<omm id="CCSDS_OMM_VERS" version="2.0">
<header><CREATION_DATE/><ORIGINATOR/></header><body><segment><metadata><OBJECT_NAME>ORBCOMM FM114 [+]</OBJECT_NAME><OBJECT_ID>2015-081A</OBJECT_ID><CENTER_NAME>EARTH</CENTER_NAME><REF_FRAME>TEME</REF_FRAME><TIME_SYSTEM>UTC</TIME_SYSTEM><MEAN_ELEMENT_THEORY>SGP4</MEAN_ELEMENT_THEORY></metadata><data><meanElements><EPOCH>2023-12-05T05:12:50.648832</EPOCH><MEAN_MOTION>14.56132506</MEAN_MOTION><ECCENTRICITY>.00027</ECCENTRICITY><INCLINATION>47.0045</INCLINATION><RA_OF_ASC_NODE>47.1750</RA_OF_ASC_NODE><ARG_OF_PERICENTER>279.3436</ARG_OF_PERICENTER><MEAN_ANOMALY>80.7143</MEAN_ANOMALY></meanElements><tleParameters><EPHEMERIS_TYPE>0</EPHEMERIS_TYPE><CLASSIFICATION_TYPE>U</CLASSIFICATION_TYPE><NORAD_CAT_ID>41179</NORAD_CAT_ID><ELEMENT_SET_NO>999</ELEMENT_SET_NO><REV_AT_EPOCH>42280</REV_AT_EPOCH><BSTAR>.30175E-3</BSTAR><MEAN_MOTION_DOT>.1177E-4</MEAN_MOTION_DOT><MEAN_MOTION_DDOT>0</MEAN_MOTION_DDOT></tleParameters></data></segment></body></omm>
<omm id="CCSDS_OMM_VERS" version="2.0">
<header><CREATION_DATE/><ORIGINATOR/></header><body><segment><metadata><OBJECT_NAME>ORBCOMM FM119 [-]</OBJECT_NAME><OBJECT_ID>2015-081B</OBJECT_ID><CENTER_NAME>EARTH</CENTER_NAME><REF_FRAME>TEME</REF_FRAME><TIME_SYSTEM>UTC</TIME_SYSTEM><MEAN_ELEMENT_THEORY>SGP4</MEAN_ELEMENT_THEORY></metadata><data><meanElements><EPOCH>2023-12-04T23:30:03.332736</EPOCH><MEAN_MOTION>14.56111103</MEAN_MOTION><ECCENTRICITY>.0001821</ECCENTRICITY><INCLINATION>47.0025</INCLINATION><RA_OF_ASC_NODE>317.4883</RA_OF_ASC_NODE><ARG_OF_PERICENTER>336.3440</ARG_OF_PERICENTER><MEAN_ANOMALY>23.7361</MEAN_ANOMALY></meanElements><tleParameters><EPHEMERIS_TYPE>0</EPHEMERIS_TYPE><CLASSIFICATION_TYPE>U</CLASSIFICATION_TYPE><NORAD_CAT_ID>41180</NORAD_CAT_ID><ELEMENT_SET_NO>999</ELEMENT_SET_NO><REV_AT_EPOCH>42402</REV_AT_EPOCH><BSTAR>.30386E-3</BSTAR><MEAN_MOTION_DOT>.1186E-4</MEAN_MOTION_DOT><MEAN_MOTION_DDOT>0</MEAN_MOTION_DDOT></tleParameters></data></segment></body></omm>
<omm id="CCSDS_OMM_VERS" version="2.0">
<header><CREATION_DATE/><ORIGINATOR/></header><body><segment><metadata><OBJECT_NAME>ORBCOMM FM105 [-]</OBJECT_NAME><OBJECT_ID>2015-081C</OBJECT_ID><CENTER_NAME>EARTH</CENTER_NAME><REF_FRAME>TEME</REF_FRAME><TIME_SYSTEM>UTC</TIME_SYSTEM><MEAN_ELEMENT_THEORY>SGP4</MEAN_ELEMENT_THEORY></metadata><data><meanElements><EPOCH>2023-12-05T05:28:03.466560</EPOCH><MEAN_MOTION>14.44134708</MEAN_MOTION><ECCENTRICITY>.000237</ECCENTRICITY><INCLINATION>47.0021</INCLINATION><RA_OF_ASC_NODE>268.9872</RA_OF_ASC_NODE><ARG_OF_PERICENTER>322.1629</ARG_OF_PERICENTER><MEAN_ANOMALY>37.9084</MEAN_ANOMALY></meanElements><tleParameters><EPHEMERIS_TYPE>0</EPHEMERIS_TYPE><CLASSIFICATION_TYPE>U</CLASSIFICATION_TYPE><NORAD_CAT_ID>41181</NORAD_CAT_ID><ELEMENT_SET_NO>999</ELEMENT_SET_NO><REV_AT_EPOCH>41978</REV_AT_EPOCH><BSTAR>.21322E-3</BSTAR><MEAN_MOTION_DOT>.58E-5</MEAN_MOTION_DOT><MEAN_MOTION_DDOT>0</MEAN_MOTION_DDOT></tleParameters></data></segment></body></omm>
<omm id="CCSDS_OMM_VERS" version="2.0">
<header><CREATION_DATE/><ORIGINATOR/></header><body><segment><metadata><OBJECT_NAME>ORBCOMM FM110 [+]</OBJECT_NAME><OBJECT_ID>2015-081D</OBJECT_ID><CENTER_NAME>EARTH</CENTER_NAME><REF_FRAME>TEME</REF_FRAME><TIME_SYSTEM>UTC</TIME_SYSTEM><MEAN_ELEMENT_THEORY>SGP4</MEAN_ELEMENT_THEORY></metadata><data><meanElements><EPOCH>2023-12-05T07:57:20.701440</EPOCH><MEAN_MOTION>14.56138018</MEAN_MOTION><ECCENTRICITY>.0001185</ECCENTRICITY><INCLINATION>47.0018</INCLINATION><RA_OF_ASC_NODE>46.0584</RA_OF_ASC_NODE><ARG_OF_PERICENTER>165.7184</ARG_OF_PERICENTER><MEAN_ANOMALY>194.3734</MEAN_ANOMALY></meanElements><tleParameters><EPHEMERIS_TYPE>0</EPHEMERIS_TYPE><CLASSIFICATION_TYPE>U</CLASSIFICATION_TYPE><NORAD_CAT_ID>41182</NORAD_CAT_ID><ELEMENT_SET_NO>999</ELEMENT_SET_NO><REV_AT_EPOCH>42269</REV_AT_EPOCH><BSTAR>.34169E-3</BSTAR><MEAN_MOTION_DOT>.1355E-4</MEAN_MOTION_DOT><MEAN_MOTION_DDOT>0</MEAN_MOTION_DDOT></tleParameters></data></segment></body></omm>
<omm id="CCSDS_OMM_VERS" version="2.0">
<header><CREATION_DATE/><ORIGINATOR/></header><body><segment><metadata><OBJECT_NAME>ORBCOMM FM118 [+]</OBJECT_NAME><OBJECT_ID>2015-081E</OBJECT_ID><CENTER_NAME>EARTH</CENTER_NAME><REF_FRAME>TEME</REF_FRAME><TIME_SYSTEM>UTC</TIME_SYSTEM><MEAN_ELEMENT_THEORY>SGP4</MEAN_ELEMENT_THEORY></metadata><data><meanElements><EPOCH>2023-12-05T07:24:34.137216</EPOCH><MEAN_MOTION>14.56133300</MEAN_MOTION><ECCENTRICITY>.0001256</ECCENTRICITY><INCLINATION>47.0042</INCLINATION><RA_OF_ASC_NODE>46.4395</RA_OF_ASC_NODE><ARG_OF_PERICENTER>157.9566</ARG_OF_PERICENTER><MEAN_ANOMALY>202.1372</MEAN_ANOMALY></meanElements><tleParameters><EPHEMERIS_TYPE>0</EPHEMERIS_TYPE><CLASSIFICATION_TYPE>U</CLASSIFICATION_TYPE><NORAD_CAT_ID>41183</NORAD_CAT_ID><ELEMENT_SET_NO>999</ELEMENT_SET_NO><REV_AT_EPOCH>42279</REV_AT_EPOCH><BSTAR>.3377E-3</BSTAR><MEAN_MOTION_DOT>.1337E-4</MEAN_MOTION_DOT><MEAN_MOTION_DDOT>0</MEAN_MOTION_DDOT></tleParameters></data></segment></body></omm>
<omm id="CCSDS_OMM_VERS" version="2.0">
<header><CREATION_DATE/><ORIGINATOR/></header><body><segment><metadata><OBJECT_NAME>ORBCOMM FM112 [+]</OBJECT_NAME><OBJECT_ID>2015-081F</OBJECT_ID><CENTER_NAME>EARTH</CENTER_NAME><REF_FRAME>TEME</REF_FRAME><TIME_SYSTEM>UTC</TIME_SYSTEM><MEAN_ELEMENT_THEORY>SGP4</MEAN_ELEMENT_THEORY></metadata><data><meanElements><EPOCH>2023-12-05T22:01:45.933600</EPOCH><MEAN_MOTION>14.56120611</MEAN_MOTION><ECCENTRICITY>.000205</ECCENTRICITY><INCLINATION>46.9994</INCLINATION><RA_OF_ASC_NODE>312.3184</RA_OF_ASC_NODE><ARG_OF_PERICENTER>327.2766</ARG_OF_PERICENTER><MEAN_ANOMALY>32.7991</MEAN_ANOMALY></meanElements><tleParameters><EPHEMERIS_TYPE>0</EPHEMERIS_TYPE><CLASSIFICATION_TYPE>U</CLASSIFICATION_TYPE><NORAD_CAT_ID>41184</NORAD_CAT_ID><ELEMENT_SET_NO>999</ELEMENT_SET_NO><REV_AT_EPOCH>42410</REV_AT_EPOCH><BSTAR>.31653E-3</BSTAR><MEAN_MOTION_DOT>.1243E-4</MEAN_MOTION_DOT><MEAN_MOTION_DDOT>0</MEAN_MOTION_DDOT></tleParameters></data></segment></body></omm>
<omm id="CCSDS_OMM_VERS" version="2.0">
<header><CREATION_DATE/><ORIGINATOR/></header><body><segment><metadata><OBJECT_NAME>ORBCOMM FM113 [+]</OBJECT_NAME><OBJECT_ID>2015-081G</OBJECT_ID><CENTER_NAME>EARTH</CENTER_NAME><REF_FRAME>TEME</REF_FRAME><TIME_SYSTEM>UTC</TIME_SYSTEM><MEAN_ELEMENT_THEORY>SGP4</MEAN_ELEMENT_THEORY></metadata><data><meanElements><EPOCH>2023-12-05T00:03:22.757472</EPOCH><MEAN_MOTION>14.56080166</MEAN_MOTION><ECCENTRICITY>.0001472</ECCENTRICITY><INCLINATION>47.0025</INCLINATION><RA_OF_ASC_NODE>316.8600</RA_OF_ASC_NODE><ARG_OF_PERICENTER>339.5656</ARG_OF_PERICENTER><MEAN_ANOMALY>20.5170</MEAN_ANOMALY></meanElements><tleParameters><EPHEMERIS_TYPE>0</EPHEMERIS_TYPE><CLASSIFICATION_TYPE>U</CLASSIFICATION_TYPE><NORAD_CAT_ID>41185</NORAD_CAT_ID><ELEMENT_SET_NO>999</ELEMENT_SET_NO><REV_AT_EPOCH>42395</REV_AT_EPOCH><BSTAR>.34195E-3</BSTAR><MEAN_MOTION_DOT>.1355E-4</MEAN_MOTION_DOT><MEAN_MOTION_DDOT>0</MEAN_MOTION_DDOT></tleParameters></data></segment></body></omm>

</ndm>
