ORBCOMM FM103 [+]       
1 40091U 14040F   23339.86846955  .00001042  00000+0  27166-3 0  9995
2 40091  47.0043 134.7711 0002529 237.7688 122.2951 14.56115267482539
ORBCOMM FM114 [+]       
1 41179U 15081A   23339.21725288  .00001177  00000+0  30175-3 0  9996
2 41179  47.0045  47.1750 0002700 279.3436  80.7143 14.56132506422803
ORBCOMM FM119 [-]       
1 41180U 15081B   23338.97920524  .00001186  00000+0  30386-3 0  9994
2 41180  47.0025 317.4883 0001821 336.3440  23.7361 14.56111103424020
ORBCOMM FM105 [-]       
1 41181U 15081C   23339.22781790  .00000580  00000+0  21322-3 0  9991
2 41181  47.0021 268.9872 0002370 322.1629  37.9084 14.44134708419786
ORBCOMM FM110 [+]       
1 41182U 15081D   23339.33148960  .00001355  00000+0  34169-3 0  9994
2 41182  47.0018  46.0584 0001185 165.7184 194.3734 14.56138018422693
ORBCOMM FM118 [+]       
1 41183U 15081E   23339.30872844  .00001337  00000+0  33770-3 0  9994
2 41183  47.0042  46.4395 0001256 157.9566 202.1372 14.56133300422797
ORBCOMM FM112 [+]       
1 41184U 15081F   23339.91789275  .00001243  00000+0  31653-3 0  9991
2 41184  46.9994 312.3184 0002050 327.2766  32.7991 14.56120611424102
ORBCOMM FM113 [+]       
1 41185U 15081G   23339.00234673  .00001355  00000+0  34195-3 0  9997
2 41185  47.0025 316.8600 0001472 339.5656  20.5170 14.56080166423959
